[
    {
        "Altitude(m)": 704782.8246533583,
        "Argument of Periapsis(deg)": 0.0011390121186627068,
        "Eccentricity": 0.0,
        "Inclination(deg)": 45.0,
        "Latitude(deg)": 33.04837419899866,
        "Longitude(deg)": 10.274403165042088,
        "Mean Anomaly(deg)": 50.244221664748096,
        "RAAN(deg)": 69.99892480585419,
        "Satellite Name": "Constellation 1 311",
        "Satellite Number": 311,
        "Semi-Major Axis(m)": 7083131.272910544,
        "Time(s)": 19
    },
    {
        "Altitude(m)": 704788.7965362406,
        "Argument of Periapsis(deg)": 0.0011989601249081123,
        "Eccentricity": 0.0,
        "Inclination(deg)": 45.0,
        "Latitude(deg)": 33.08122235842585,
        "Longitude(deg)": 10.331212452665428,
        "Mean Anomaly(deg)": 50.30492280499797,
        "RAAN(deg)": 69.9988682166886,
        "Satellite Name": "Constellation 1 311",
        "Satellite Number": 311,
        "Semi-Major Axis(m)": 7083131.272910544,
        "Time(s)": 20
    },
    {
        "Altitude(m)": 704794.7691940956,
        "Argument of Periapsis(deg)": 0.001258908131153518,
        "Eccentricity": 0.0,
        "Inclination(deg)": 45.0,
        "Latitude(deg)": 33.11404056906532,
        "Longitude(deg)": 10.388066993971243,
        "Mean Anomaly(deg)": 50.3656239452479,
        "RAAN(deg)": 69.99881162752304,
        "Satellite Name": "Constellation 1 311",
        "Satellite Number": 311,
        "Semi-Major Axis(m)": 7083131.272910544,
        "Time(s)": 21
    },
    {
        "Altitude(m)": 704800.7425879452,
        "Argument of Periapsis(deg)": 0.0013188561373989236,
        "Eccentricity": 0.0,
        "Inclination(deg)": 45.0,
        "Latitude(deg)": 33.14682877190073,
        "Longitude(deg)": 10.44496666995088,
        "Mean Anomaly(deg)": 50.426325085497766,
        "RAAN(deg)": 69.99875503835746,
        "Satellite Name": "Constellation 1 311",
        "Satellite Number": 311,
        "Semi-Major Axis(m)": 7083131.272910544,
        "Time(s)": 22
    },
    {
        "Altitude(m)": 704806.7166788302,
        "Argument of Periapsis(deg)": 0.0013788041436443293,
        "Eccentricity": 0.0,
        "Inclination(deg)": 45.0,
        "Latitude(deg)": 33.17958690784539,
        "Longitude(deg)": 10.501911865751623,
        "Mean Anomaly(deg)": 50.48702622574768,
        "RAAN(deg)": 69.9986984491919,
        "Satellite Name": "Constellation 1 311",
        "Satellite Number": 311,
        "Semi-Major Axis(m)": 7083131.272910544,
        "Time(s)": 23
    },
    {
        "Altitude(m)": 704812.6914277931,
        "Argument of Periapsis(deg)": 0.001438752149889735,
        "Eccentricity": 0.0,
        "Inclination(deg)": 45.0,
        "Latitude(deg)": 33.21231491774063,
        "Longitude(deg)": 10.558902462093236,
        "Mean Anomaly(deg)": 50.54772736599758,
        "RAAN(deg)": 69.99864186002632,
        "Satellite Name": "Constellation 1 311",
        "Satellite Number": 311,
        "Semi-Major Axis(m)": 7083131.272910544,
        "Time(s)": 24
    },
    {
        "Altitude(m)": 704818.6667959009,
        "Argument of Periapsis(deg)": 0.0014987001561351404,
        "Eccentricity": 0.0,
        "Inclination(deg)": 45.0,
        "Latitude(deg)": 33.24501274235702,
        "Longitude(deg)": 10.6159385076553,
        "Mean Anomaly(deg)": 50.60842850624747,
        "RAAN(deg)": 69.99858527086076,
        "Satellite Name": "Constellation 1 311",
        "Satellite Number": 311,
        "Semi-Major Axis(m)": 7083131.272910544,
        "Time(s)": 25
    },
    {
        "Altitude(m)": 704824.6427442236,
        "Argument of Periapsis(deg)": 0.001558648162380546,
        "Eccentricity": 0.0,
        "Inclination(deg)": 45.0,
        "Latitude(deg)": 33.277680322394154,
        "Longitude(deg)": 10.673020050979016,
        "Mean Anomaly(deg)": 50.669129646497346,
        "RAAN(deg)": 69.99852868169518,
        "Satellite Name": "Constellation 1 311",
        "Satellite Number": 311,
        "Semi-Major Axis(m)": 7083131.272910544,
        "Time(s)": 26
    },
    {
        "Altitude(m)": 704830.6192338569,
        "Argument of Periapsis(deg)": 0.0016185961686259519,
        "Eccentricity": 0.0,
        "Inclination(deg)": 45.0,
        "Latitude(deg)": 33.310317598480836,
        "Longitude(deg)": 10.730147140466391,
        "Mean Anomaly(deg)": 50.72983078674726,
        "RAAN(deg)": 69.99847209252962,
        "Satellite Name": "Constellation 1 311",
        "Satellite Number": 311,
        "Semi-Major Axis(m)": 7083131.272910544,
        "Time(s)": 27
    },
    {
        "Altitude(m)": 704836.5962258965,
        "Argument of Periapsis(deg)": 0.0016785441748713573,
        "Eccentricity": 0.0,
        "Inclination(deg)": 45.0,
        "Latitude(deg)": 33.342924511175006,
        "Longitude(deg)": 10.787319824378864,
        "Mean Anomaly(deg)": 50.79053192699719,
        "RAAN(deg)": 69.99841550336406,
        "Satellite Name": "Constellation 1 311",
        "Satellite Number": 311,
        "Semi-Major Axis(m)": 7083131.272910544,
        "Time(s)": 28
    },
    {
        "Altitude(m)": 704842.5736814649,
        "Argument of Periapsis(deg)": 0.001738492181116763,
        "Eccentricity": 0.0,
        "Inclination(deg)": 45.0,
        "Latitude(deg)": 33.37550100096382,
        "Longitude(deg)": 10.844538150836412,
        "Mean Anomaly(deg)": 50.851233067247065,
        "RAAN(deg)": 69.99835891419848,
        "Satellite Name": "Constellation 1 311",
        "Satellite Number": 311,
        "Semi-Major Axis(m)": 7083131.272910544,
        "Time(s)": 29
    },
    {
        "Altitude(m)": 704848.5515616898,
        "Argument of Periapsis(deg)": 0.0017984401873621684,
        "Eccentricity": 0.0,
        "Inclination(deg)": 45.0,
        "Latitude(deg)": 33.408047008263665,
        "Longitude(deg)": 10.901801999719718,
        "Mean Anomaly(deg)": 50.911934207496984,
        "RAAN(deg)": 69.99830232503291,
        "Satellite Name": "Constellation 1 311",
        "Satellite Number": 311,
        "Semi-Major Axis(m)": 7083131.272910544,
        "Time(s)": 30
    },
    {
        "Altitude(m)": 704854.529827717,
        "Argument of Periapsis(deg)": 0.0018583881936075745,
        "Eccentricity": 0.0,
        "Inclination(deg)": 45.0,
        "Latitude(deg)": 33.44056247342119,
        "Longitude(deg)": 10.959111755057059,
        "Mean Anomaly(deg)": 50.972635347746866,
        "RAAN(deg)": 69.99824573586734,
        "Satellite Name": "Constellation 1 311",
        "Satellite Number": 311,
        "Semi-Major Axis(m)": 7083131.272910544,
        "Time(s)": 31
    },
    {
        "Altitude(m)": 704860.5084406981,
        "Argument of Periapsis(deg)": 0.0019183361998529795,
        "Eccentricity": 0.0,
        "Inclination(deg)": 45.0,
        "Latitude(deg)": 33.473047336711716,
        "Longitude(deg)": 11.016467296440931,
        "Mean Anomaly(deg)": 51.03333648799677,
        "RAAN(deg)": 69.99818914670178,
        "Satellite Name": "Constellation 1 311",
        "Satellite Number": 311,
        "Semi-Major Axis(m)": 7083131.272910544,
        "Time(s)": 32
    },
    {
        "Altitude(m)": 704866.487361818,
        "Argument of Periapsis(deg)": 0.0019782842060983856,
        "Eccentricity": 0.0,
        "Inclination(deg)": 45.0,
        "Latitude(deg)": 33.505501538340496,
        "Longitude(deg)": 11.073868671415415,
        "Mean Anomaly(deg)": 51.094037628246646,
        "RAAN(deg)": 69.99813255753621,
        "Satellite Name": "Constellation 1 311",
        "Satellite Number": 311,
        "Semi-Major Axis(m)": 7083131.272910544,
        "Time(s)": 33
    },
    {
        "Altitude(m)": 704872.4665522559,
        "Argument of Periapsis(deg)": 0.0020382322123437906,
        "Eccentricity": 0.0,
        "Inclination(deg)": 45.0,
        "Latitude(deg)": 33.53792501844252,
        "Longitude(deg)": 11.131315927377935,
        "Mean Anomaly(deg)": 51.154738768496564,
        "RAAN(deg)": 69.99807596837063,
        "Satellite Name": "Constellation 1 311",
        "Satellite Number": 311,
        "Semi-Major Axis(m)": 7083131.272910544,
        "Time(s)": 34
    },
    {
        "Altitude(m)": 704878.4459732249,
        "Argument of Periapsis(deg)": 0.002098180218589197,
        "Eccentricity": 0.0,
        "Inclination(deg)": 45.0,
        "Latitude(deg)": 33.57031771708261,
        "Longitude(deg)": 11.188809111578069,
        "Mean Anomaly(deg)": 51.21543990874646,
        "RAAN(deg)": 69.99801937920508,
        "Satellite Name": "Constellation 1 311",
        "Satellite Number": 311,
        "Semi-Major Axis(m)": 7083131.272910544,
        "Time(s)": 35
    },
    {
        "Altitude(m)": 704884.4255859341,
        "Argument of Periapsis(deg)": 0.002158128224834602,
        "Eccentricity": 0.0,
        "Inclination(deg)": 45.0,
        "Latitude(deg)": 33.602679574255454,
        "Longitude(deg)": 11.246348271116847,
        "Mean Anomaly(deg)": 51.27614104899635,
        "RAAN(deg)": 69.9979627900395,
        "Satellite Name": "Constellation 1 311",
        "Satellite Number": 311,
        "Semi-Major Axis(m)": 7083131.272910544,
        "Time(s)": 36
    },
    {
        "Altitude(m)": 704890.4053516205,
        "Argument of Periapsis(deg)": 0.002218076231080008,
        "Eccentricity": 0.0,
        "Inclination(deg)": 45.0,
        "Latitude(deg)": 33.63501052988556,
        "Longitude(deg)": 11.3039332848484,
        "Mean Anomaly(deg)": 51.33684218924628,
        "RAAN(deg)": 69.99790620087393,
        "Satellite Name": "Constellation 1 311",
        "Satellite Number": 311,
        "Semi-Major Axis(m)": 7083131.272910544,
        "Time(s)": 37
    }
]